[{"OBJECT_NAME":"STARLINK-1559","OBJECT_ID":"2020-055BC","EPOCH":"2026-03-09T05:36:23.522976","MEAN_MOTION":15.29461733,"ECCENTRICITY":0.0004229,"INCLINATION":53.0254,"RA_OF_ASC_NODE":76.0659,"ARG_OF_PERICENTER":33.971,"MEAN_ANOMALY":326.1559,"EPHEMERIS_TYPE":0,"CLASSIFICATION_TYPE":"U","NORAD_CAT_ID":46077,"ELEMENT_SET_NO":999,"REV_AT_EPOCH":30951,"BSTAR":0.0014778793,"MEAN_MOTION_DOT":0.00042685,"MEAN_MOTION_DDOT":0},{"OBJECT_NAME":"STARLINK-31728","OBJECT_ID":"2024-071N","EPOCH":"2026-03-09T02:04:28.147296","MEAN_MOTION":15.27551096,"ECCENTRICITY":0.00019046,"INCLINATION":43.0043,"RA_OF_ASC_NODE":343.1232,"ARG_OF_PERICENTER":251.6182,"MEAN_ANOMALY":108.4463,"EPHEMERIS_TYPE":0,"CLASSIFICATION_TYPE":"U","NORAD_CAT_ID":59496,"ELEMENT_SET_NO":999,"REV_AT_EPOCH":10811,"BSTAR":0.0010473047,"MEAN_MOTION_DOT":0.00028644,"MEAN_MOTION_DDOT":0}]
