STARLINK-1559           
1 46077U 20055BC  26068.23360559  .00042685  00000+0  14779-2 0  9995
2 46077  53.0254  76.0659 0004229  33.9710 326.1559 15.29461733309518
STARLINK-31728          
1 59496U 24071N   26068.08643689  .00028644  00000+0  10473-2 0  9993
2 59496  43.0043 343.1232 0001904 251.6182 108.4463 15.27551096108114
